[{"OBJECT_NAME":"RESURS-P 5","OBJECT_ID":"2024-250A","EPOCH":"2026-03-09T23:31:56.908992","MEAN_MOTION":15.32839945,"ECCENTRICITY":0.00026027,"INCLINATION":97.276,"RA_OF_ASC_NODE":355.9792,"ARG_OF_PERICENTER":63.1234,"MEAN_ANOMALY":297.0274,"EPHEMERIS_TYPE":0,"CLASSIFICATION_TYPE":"U","NORAD_CAT_ID":62430,"ELEMENT_SET_NO":999,"REV_AT_EPOCH":6735,"BSTAR":0.00015600887,"MEAN_MOTION_DOT":4.871e-5,"MEAN_MOTION_DDOT":0},{"OBJECT_NAME":"STARLINK-36153","OBJECT_ID":"2025-286K","EPOCH":"2026-03-09T23:28:22.105632","MEAN_MOTION":15.30246946,"ECCENTRICITY":0.0001137,"INCLINATION":53.1615,"RA_OF_ASC_NODE":356.9192,"ARG_OF_PERICENTER":140.1263,"MEAN_ANOMALY":219.9822,"EPHEMERIS_TYPE":0,"CLASSIFICATION_TYPE":"U","NORAD_CAT_ID":66934,"ELEMENT_SET_NO":999,"REV_AT_EPOCH":1546,"BSTAR":0.001059716,"MEAN_MOTION_DOT":0.00031204,"MEAN_MOTION_DDOT":0}]
